{"type": "FeatureCollection", "features": [ {"type": "Feature", "properties": {"norad_id": 66666, "name": "FORMOSAT-8A", "group": "last-30-days", "lat": -12.639933515737196, "lon": -114.51114828081509, "alt_km": 567.8174820835693, "timestamp": "2025-12-21T09:37:21.371064+00:00", "meta": {"OBJECT_NAME": "FORMOSAT-8A", "OBJECT_ID": "2025-276A", "EPOCH": "2025-12-21T03:57:52.764192", "MEAN_MOTION": 15.00334688, "ECCENTRICITY": 0.0003731, "INCLINATION": 97.6581, "RA_OF_ASC_NODE": 66.9859, "ARG_OF_PERICENTER": 198.2406, "MEAN_ANOMALY": 161.8684, "EPHEMERIS_TYPE": 0, "CLASSIFICATION_TYPE": "U", "NORAD_CAT_ID": 66666, "ELEMENT_SET_NO": 999, "REV_AT_EPOCH": 335, "BSTAR": 0.00030812, "MEAN_MOTION_DOT": 3.807e-05, "MEAN_MOTION_DDOT": 0}, "tle": {"line1": "1 66666U 25276A   25355.16519403  .00003807  00000+0  30812-3 0  9995", "line2": "2 66666  97.6581  66.9859 0003731 198.2406 161.8684 15.00334688  3358"}}, "geometry": {"type": "Point", "coordinates": [-114.51114828081509, -12.639933515737196]}}, {"type": "Feature", "properties": {"norad_id": 66667, "name": "PELICAN-5", "group": "last-30-days", "lat": 30.838138376753438, "lon": -108.498130814483, "alt_km": 511.0337492062863, "timestamp": "2025-12-21T09:37:21.371075+00:00", "meta": {"OBJECT_NAME": "PELICAN-5", "OBJECT_ID": "2025-276B", "EPOCH": "2025-12-21T04:13:17.949216", "MEAN_MOTION": 15.17590233, "ECCENTRICITY": 0.0001976, "INCLINATION": 97.4421, "RA_OF_ASC_NODE": 66.8048, "ARG_OF_PERICENTER": 218.1343, "MEAN_ANOMALY": 141.9751, "EPHEMERIS_TYPE": 0, "CLASSIFICATION_TYPE": "U", "NORAD_CAT_ID": 66667, "ELEMENT_SET_NO": 999, "REV_AT_EPOCH": 340, "BSTAR": 0.00028166, "MEAN_MOTION_DOT": 5.594e-05, "MEAN_MOTION_DDOT": 0}, "tle": {"line1": "1 66667U 25276B   25355.17590219  .00005594  00000+0  28166-3 0  9995", "line2": "2 66667  97.4421  66.8048 0001976 218.1343 141.9751 15.17590233  3408"}}, "geometry": {"type": "Point", "coordinates": [-108.498130814483, 30.838138376753438]}}, {"type": "Feature", "properties": {"norad_id": 66668, "name": "TRANSPORTER-15 C", "group": "last-30-days", "lat": 70.18953829762964, "lon": 45.7184883610439, "alt_km": 512.7861159766544, "timestamp": "2025-12-21T09:37:21.371087+00:00", "meta": {"OBJECT_NAME": "TRANSPORTER-15 C", "OBJECT_ID": "2025-276C", "EPOCH": "2025-12-20T22:13:37.384032", "MEAN_MOTION": 15.1707915, "ECCENTRICITY": 0.0007665, "INCLINATION": 97.4287, "RA_OF_ASC_NODE": 66.4889, "ARG_OF_PERICENTER": 274.4535, "MEAN_ANOMALY": 85.5822, "EPHEMERIS_TYPE": 0, "CLASSIFICATION_TYPE": "U", "NORAD_CAT_ID": 66668, "ELEMENT_SET_NO": 999, "REV_AT_EPOCH": 336, "BSTAR": 0.00069125, "MEAN_MOTION_DOT": 0.00013648, "MEAN_MOTION_DDOT": 0}, "tle": {"line1": "1 66668U 25276C   25354.92612713  .00013648  00000+0  69125-3 0  9991", "line2": "2 66668  97.4287  66.4889 0007665 274.4535  85.5822 15.17079150  3364"}}, "geometry": {"type": "Point", "coordinates": [45.7184883610439, 70.18953829762964]}}, {"type": "Feature", "properties": {"norad_id": 66669, "name": "TRANSPORTER-15 D", "group": "last-30-days", "lat": 18.7154216793276, "lon": -110.46542243383762, "alt_km": 446.0890862734868, "timestamp": "2025-12-21T09:37:21.371098+00:00", "meta": {"OBJECT_NAME": "TRANSPORTER-15 D", "OBJECT_ID": "2025-276D", "EPOCH": "2025-12-21T02:39:18.209952", "MEAN_MOTION": 15.34134881, "ECCENTRICITY": 0.007482, "INCLINATION": 97.4314, "RA_OF_ASC_NODE": 66.7079, "ARG_OF_PERICENTER": 232.3102, "MEAN_ANOMALY": 127.1341, "EPHEMERIS_TYPE": 0, "CLASSIFICATION_TYPE": "U", "NORAD_CAT_ID": 66669, "ELEMENT_SET_NO": 999, "REV_AT_EPOCH": 339, "BSTAR": 0.002783, "MEAN_MOTION_DOT": 0.00101698, "MEAN_MOTION_DDOT": 0}, "tle": {"line1": "1 66669U 25276D   25355.11062743  .00101698  00000+0  27830-2 0  9995", "line2": "2 66669  97.4314  66.7079 0074820 232.3102 127.1341 15.34134881  3394"}}, "geometry": {"type": "Point", "coordinates": [-110.46542243383762, 18.7154216793276]}}, {"type": "Feature", "properties": {"norad_id": 66670, "name": "TRANSPORTER-15 E", "group": "last-30-days", "lat": 76.12475123871292, "lon": 35.069342955136804, "alt_km": 511.8748360256395, "timestamp": "2025-12-21T09:37:21.371109+00:00", "meta": {"OBJECT_NAME": "TRANSPORTER-15 E", "OBJECT_ID": "2025-276E", "EPOCH": "2025-12-21T02:56:49.481952", "MEAN_MOTION": 15.17153788, "ECCENTRICITY": 0.0007093, "INCLINATION": 97.4308, "RA_OF_ASC_NODE": 66.6916, "ARG_OF_PERICENTER": 277.8269, "MEAN_ANOMALY": 82.2159, "EPHEMERIS_TYPE": 0, "CLASSIFICATION_TYPE": "U", "NORAD_CAT_ID": 66670, "ELEMENT_SET_NO": 999, "REV_AT_EPOCH": 339, "BSTAR": 0.00073559, "MEAN_MOTION_DOT": 0.00014559, "MEAN_MOTION_DDOT": 0}, "tle": {"line1": "1 66670U 25276E   25355.12279493  .00014559  00000+0  73559-3 0  9999", "line2": "2 66670  97.4308  66.6916 0007093 277.8269  82.2159 15.17153788  3390"}}, "geometry": {"type": "Point", "coordinates": [35.069342955136804, 76.12475123871292]}}, {"type": "Feature", "properties": {"norad_id": 66671, "name": "TRANSPORTER-15 F", "group": "last-30-days", "lat": 82.55138245785312, "lon": -23.727421780473826, "alt_km": 510.624843066852, "timestamp": "2025-12-21T09:37:21.371121+00:00", "meta": {"OBJECT_NAME": "TRANSPORTER-15 F", "OBJECT_ID": "2025-276F", "EPOCH": "2025-12-21T04:28:39.584064", "MEAN_MOTION": 15.17067565, "ECCENTRICITY": 0.0005031, "INCLINATION": 97.4429, "RA_OF_ASC_NODE": 66.7913, "ARG_OF_PERICENTER": 259.0945, "MEAN_ANOMALY": 100.9722, "EPHEMERIS_TYPE": 0, "CLASSIFICATION_TYPE": "U", "NORAD_CAT_ID": 66671, "ELEMENT_SET_NO": 999, "REV_AT_EPOCH": 340, "BSTAR": 0.00042638, "MEAN_MOTION_DOT": 8.38e-05, "MEAN_MOTION_DDOT": 0}, "tle": {"line1": "1 66671U 25276F   25355.18656926  .00008380  00000+0  42638-3 0  9995", "line2": "2 66671  97.4429  66.7913 0005031 259.0945 100.9722 15.17067565  3409"}}, "geometry": {"type": "Point", "coordinates": [-23.727421780473826, 82.55138245785312]}}, {"type": "Feature", "properties": {"norad_id": 66672, "name": "TRANSPORTER-15 G", "group": "last-30-days", "lat": 65.26183326985807, "lon": 50.50777552378048, "alt_km": 513.3484184015861, "timestamp": "2025-12-21T09:37:21.371135+00:00", "meta": {"OBJECT_NAME": "TRANSPORTER-15 G", "OBJECT_ID": "2025-276G", "EPOCH": "2025-12-21T02:59:49.205184", "MEAN_MOTION": 15.16610726, "ECCENTRICITY": 0.0005317, "INCLINATION": 97.4402, "RA_OF_ASC_NODE": 66.7136, "ARG_OF_PERICENTER": 257.7446, "MEAN_ANOMALY": 102.3192, "EPHEMERIS_TYPE": 0, "CLASSIFICATION_TYPE": "U", "NORAD_CAT_ID": 66672, "ELEMENT_SET_NO": 999, "REV_AT_EPOCH": 339, "BSTAR": 0.00031625, "MEAN_MOTION_DOT": 6.117e-05, "MEAN_MOTION_DDOT": 0}, "tle": {"line1": "1 66672U 25276G   25355.12487506  .00006117  00000+0  31625-3 0  9996", "line2": "2 66672  97.4402  66.7136 0005317 257.7446 102.3192 15.16610726  3393"}}, "geometry": {"type": "Point", "coordinates": [50.50777552378048, 65.26183326985807]}}, {"type": "Feature", "properties": {"norad_id": 66673, "name": "TRANSPORTER-15 H", "group": "last-30-days", "lat": 80.84814212515526, "lon": 12.805354709942092, "alt_km": 511.19864848332145, "timestamp": "2025-12-21T09:37:21.371146+00:00", "meta": {"OBJECT_NAME": "TRANSPORTER-15 H", "OBJECT_ID": "2025-276H", "EPOCH": "2025-12-21T02:55:06.927744", "MEAN_MOTION": 15.17070172, "ECCENTRICITY": 0.0005787, "INCLINATION": 97.4371, "RA_OF_ASC_NODE": 66.7083, "ARG_OF_PERICENTER": 276.4025, "MEAN_ANOMALY": 83.6549, "EPHEMERIS_TYPE": 0, "CLASSIFICATION_TYPE": "U", "NORAD_CAT_ID": 66673, "ELEMENT_SET_NO": 999, "REV_AT_EPOCH": 339, "BSTAR": 0.00036325, "MEAN_MOTION_DOT": 7.13e-05, "MEAN_MOTION_DDOT": 0}, "tle": {"line1": "1 66673U 25276H   25355.12160796  .00007130  00000+0  36325-3 0  9994", "line2": "2 66673  97.4371  66.7083 0005787 276.4025  83.6549 15.17070172  3395"}}, "geometry": {"type": "Point", "coordinates": [12.805354709942092, 80.84814212515526]}}, {"type": "Feature", "properties": {"norad_id": 66674, "name": "TRANSPORTER-15 J", "group": "last-30-days", "lat": 73.59178500850096, "lon": 40.644015746621626, "alt_km": 512.0864762624751, "timestamp": "2025-12-21T09:37:21.371156+00:00", "meta": {"OBJECT_NAME": "TRANSPORTER-15 J", "OBJECT_ID": "2025-276J", "EPOCH": "2025-12-21T02:57:28.787904", "MEAN_MOTION": 15.16722605, "ECCENTRICITY": 0.0004913, "INCLINATION": 97.4384, "RA_OF_ASC_NODE": 66.7102, "ARG_OF_PERICENTER": 262.4156, "MEAN_ANOMALY": 97.6519, "EPHEMERIS_TYPE": 0, "CLASSIFICATION_TYPE": "U", "NORAD_CAT_ID": 66674, "ELEMENT_SET_NO": 999, "REV_AT_EPOCH": 339, "BSTAR": 0.00029229, "MEAN_MOTION_DOT": 5.666e-05, "MEAN_MOTION_DDOT": 0}, "tle": {"line1": "1 66674U 25276J   25355.12324986  .00005666  00000+0  29229-3 0  9995", "line2": "2 66674  97.4384  66.7102 0004913 262.4156  97.6519 15.16722605  3398"}}, "geometry": {"type": "Point", "coordinates": [40.644015746621626, 73.59178500850096]}}, {"type": "Feature", "properties": {"norad_id": 66675, "name": "TRANSPORTER-15 K", "group": "last-30-days", "lat": 81.13286023396623, "lon": 10.104714595435212, "alt_km": 511.0113964353159, "timestamp": "2025-12-21T09:37:21.371167+00:00", "meta": {"OBJECT_NAME": "TRANSPORTER-15 K", "OBJECT_ID": "2025-276K", "EPOCH": "2025-12-21T02:54:57.231072", "MEAN_MOTION": 15.16970625, "ECCENTRICITY": 0.0004993, "INCLINATION": 97.4395, "RA_OF_ASC_NODE": 66.7158, "ARG_OF_PERICENTER": 266.733, "MEAN_ANOMALY": 93.3332, "EPHEMERIS_TYPE": 0, "CLASSIFICATION_TYPE": "U", "NORAD_CAT_ID": 66675, "ELEMENT_SET_NO": 999, "REV_AT_EPOCH": 339, "BSTAR": 0.00039192, "MEAN_MOTION_DOT": 7.676e-05, "MEAN_MOTION_DDOT": 0}, "tle": {"line1": "1 66675U 25276K   25355.12149573  .00007676  00000+0  39192-3 0  9996", "line2": "2 66675  97.4395  66.7158 0004993 266.7330  93.3332 15.16970625  3394"}}, "geometry": {"type": "Point", "coordinates": [10.104714595435212, 81.13286023396623]}}]}